<?xml version="1.0" encoding="UTF-8"?>
<kml xmlns="http://www.opengis.net/kml/2.2" xmlns:gx="http://www.google.com/kml/ext/2.2">
    <Document id="1303">
        <Style id="1306">
            <LineStyle id="1307">
                <color>ff0000ff</color>
                <colorMode>normal</colorMode>
                <width>2</width>
            </LineStyle>
        </Style>
        <Placemark id="1305">
            <name>Drone 2 Path</name>
            <styleUrl>#1306</styleUrl>
            <LineString id="1304">
                <altitudeMode>clampToGround</altitudeMode>
                <coordinates>80.05035396655673,12.92794245269001,0.0 80.05035396655673,12.92988619275016,0.0 80.05077761570966,12.929180606583284,0.0 80.05077761570966,12.928296633990483,0.0</coordinates>
            </LineString>
        </Placemark>
        <Placemark id="1309">
            <name>1</name>
            <Point id="1308">
                <coordinates>80.05035396655673,12.92794245269001,0.0</coordinates>
            </Point>
        </Placemark>
        <Placemark id="1311">
            <name>2</name>
            <Point id="1310">
                <coordinates>80.05035396655673,12.92988619275016,0.0</coordinates>
            </Point>
        </Placemark>
        <Placemark id="1313">
            <name>3</name>
            <Point id="1312">
                <coordinates>80.05077761570966,12.929180606583284,0.0</coordinates>
            </Point>
        </Placemark>
        <Placemark id="1315">
            <name>4</name>
            <Point id="1314">
                <coordinates>80.05077761570966,12.928296633990483,0.0</coordinates>
            </Point>
        </Placemark>
    </Document>
</kml>
