<?xml version="1.0" encoding="UTF-8"?>
<kml xmlns="http://www.opengis.net/kml/2.2" xmlns:gx="http://www.google.com/kml/ext/2.2">
    <Document id="1263">
        <Style id="1266">
            <LineStyle id="1267">
                <color>ff0000ff</color>
                <colorMode>normal</colorMode>
                <width>2</width>
            </LineStyle>
        </Style>
        <Placemark id="1265">
            <name>Drone 4 Path</name>
            <styleUrl>#1266</styleUrl>
            <LineString id="1264">
                <altitudeMode>clampToGround</altitudeMode>
                <coordinates>80.04891843359832,12.92771873121505,0.0 80.04891843359832,12.92988619275016,0.0</coordinates>
            </LineString>
        </Placemark>
        <Placemark id="1269">
            <name>1</name>
            <Point id="1268">
                <coordinates>80.04891843359832,12.92771873121505,0.0</coordinates>
            </Point>
        </Placemark>
        <Placemark id="1271">
            <name>2</name>
            <Point id="1270">
                <coordinates>80.04891843359832,12.92988619275016,0.0</coordinates>
            </Point>
        </Placemark>
    </Document>
</kml>
